*******************************************************************************
 Revised: October 11, 2016             Saturn                               699
 
 PHYSICAL DATA (updated 2018-Aug-15):
  Mass x10^26 (kg)      = 5.6834          Density (g/cm^3)       =  0.687+-.001
  Equat. radius (1 bar) = 60268+-4 km     Polar radius (km)      = 54364+-10
  Vol. Mean Radius (km) = 58232+-6        Flattening             =  0.09796
  Geometric Albedo      = 0.47            Rocky core mass (Mc/M) =  0.1027
  Sid. rot. period (III)= 10h 39m 22.4s   Sid. rot. rate (rad/s) =  0.000163785 
  Mean solar day, hrs   =~10.656         
  GM (km^3/s^2)         = 37931207.8      GM 1-sigma (km^3/s^2)  = +- 98
  Equ. grav, ge (m/s^2) = 10.44           Pol. grav, gp (m/s^2)  = 12.14+-0.01
  Vis. magnitude V(1,0) = -8.88          
  Vis. mag. (opposition)= +0.67           Obliquity to orbit     = 26.73 deg
  Sidereal orbit period = 29.447498 yr    Sidereal orbit period  = 10755.698 d
  Mean daily motion     = 0.0334979 deg/d Mean orbit velocity    =  9.68 km/s
  Atmos. temp. (1 bar)  = 134+-4 K        Escape speed, km/s    =  35.5          
  Aroche(ice)/Rp        =  2.71           Hill's sphere rad. Rp  = 1100
                                 Perihelion  Aphelion    Mean
  Solar Constant (W/m^2)         16.8        13.6        15.1
  Maximum Planetary IR (W/m^2)    4.7         4.5         4.6
  Minimum Planetary IR (W/m^2)    4.7         4.5         4.6
*******************************************************************************
 

 

*******************************************************************************
Ephemeris / WWW_USER Sat Mar  9 19:56:25 2019 Pasadena, USA      / Horizons    
*******************************************************************************
Target body name: Saturn (699)                    {source: sat409l_merged_DE437}
Center body name: Solar System Barycenter (0)     {source: DE431mx}
Center-site name: BODY CENTER
*******************************************************************************
Start time      : A.D. 1970-Jan-01 00:00:00.0000 TDB
Stop  time      : A.D. 2100-Jan-01 00:00:00.0000 TDB
Step-size       : 1 calendar years
*******************************************************************************
Center geodetic : 0.00000000,0.00000000,0.0000000 {E-lon(deg),Lat(deg),Alt(km)}
Center cylindric: 0.00000000,0.00000000,0.0000000 {E-lon(deg),Dxy(km),Dz(km)}
Center radii    : (undefined)                                                  
Output units    : KM-S                                                         
Output type     : GEOMETRIC cartesian states
Output format   : 2 (position and velocity)
Reference frame : ICRF/J2000.0                                                 
Coordinate systm: Earth Mean Equator and Equinox of Reference Epoch            
*******************************************************************************
            JDTDB,            Calendar Date (TDB),                      X,                      Y,                      Z,                     VX,                     VY,                     VZ,
**************************************************************************************************************************************************************************************************
$$SOE
2464693.500000000, A.D. 2036-Jan-01 00:00:00.0000, -9.503717173908890E+08,  8.924007864601251E+08,  4.095393964123135E+08, -7.462568661006400E+00, -6.351656907629434E+00, -2.301472300829310E+00,
2465059.500000000, A.D. 2037-Jan-01 00:00:00.0000, -1.159946437933812E+09,  6.703910037951465E+08,  3.268641349079128E+08, -5.744098850826766E+00, -7.626309198055215E+00, -2.902040896490474E+00,
2465424.500000000, A.D. 2038-Jan-01 00:00:00.0000, -1.310808795505307E+09,  4.152830792089776E+08,  2.279888398045156E+08, -3.796058240288993E+00, -8.482859191398333E+00, -3.340025292295702E+00,
2465789.500000000, A.D. 2039-Jan-01 00:00:00.0000, -1.398048221434781E+09,  1.399639125298169E+08,  1.180251235589341E+08, -1.728678009712552E+00, -8.905559406397300E+00, -3.604146295212675E+00,
2466154.500000000, A.D. 2040-Jan-01 00:00:00.0000, -1.419649148579145E+09, -1.419472374403931E+08,  2.510317221742448E+06,  3.501944017933835E-01, -8.902513483428564E+00, -3.692854803737168E+00,
2466520.500000000, A.D. 2041-Jan-01 00:00:00.0000, -1.376593839709826E+09, -4.181642356524372E+08, -1.134421989435142E+08,  2.350379441279763E+00, -8.501804824320917E+00, -3.613827982192885E+00,
2466885.500000000, A.D. 2042-Jan-01 00:00:00.0000, -1.273094020179811E+09, -6.753209279181418E+08, -2.241326579971796E+08,  4.179974754683051E+00, -7.749924768025886E+00, -3.382277703030399E+00,
2467250.500000000, A.D. 2043-Jan-01 00:00:00.0000, -1.115410839963772E+09, -9.038740878886223E+08, -3.253467010143870E+08,  5.778985889078471E+00, -6.697209233766972E+00, -3.016173531251102E+00,
2467615.500000000, A.D. 2044-Jan-01 00:00:00.0000, -9.115978264956391E+08, -1.095179078555787E+09, -4.131625705108222E+08,  7.099701692268582E+00, -5.398460840850094E+00, -2.536178443069858E+00,
2467981.500000000, A.D. 2045-Jan-01 00:00:00.0000, -6.702779702053875E+08, -1.242706179982585E+09, -4.845094606856040E+08,  8.110902259371867E+00, -3.906019021473047E+00, -1.963006912023330E+00,
2468346.500000000, A.D. 2046-Jan-01 00:00:00.0000, -4.030117815310802E+08, -1.340595042750417E+09, -5.364677490754923E+08,  8.783539615821487E+00, -2.286796665074887E+00, -1.322708900962883E+00,
2468711.500000000, A.D. 2047-Jan-01 00:00:00.0000, -1.199848731455945E+08, -1.386089640680602E+09, -5.674599873606385E+08,  9.107295588399170E+00, -5.934452156745855E-01, -6.370172414563483E-01,
2469076.500000000, A.D. 2048-Jan-01 00:00:00.0000,  1.676934791467584E+08, -1.377763796756816E+09, -5.764183528321075E+08,  9.076558589976285E+00,  1.117587435857556E+00,  7.092693656309880E-02,
2469442.500000000, A.D. 2049-Jan-01 00:00:00.0000,  4.495953689487912E+08, -1.315725055176450E+09, -5.629378490225866E+08,  8.691747631604221E+00,  2.793789375339228E+00,  7.798312337615266E-01,
2469807.500000000, A.D. 2050-Jan-01 00:00:00.0000,  7.131372116589372E+08, -1.202431158070781E+09, -5.274914654901689E+08,  7.963282507756877E+00,  4.370839741235955E+00,  1.462336954748076E+00,
2470172.500000000, A.D. 2051-Jan-01 00:00:00.0000,  9.484845305405183E+08, -1.041662289115502E+09, -4.712167532418255E+08,  6.907707859503054E+00,  5.796803580753773E+00,  2.096616818301283E+00,
2470537.500000000, A.D. 2052-Jan-01 00:00:00.0000,  1.145684865129679E+09, -8.390551091303396E+08, -3.960131848438147E+08,  5.550543152981217E+00,  7.015777590406049E+00,  2.658572989117247E+00,
2470903.500000000, A.D. 2053-Jan-01 00:00:00.0000,  1.296104507169213E+09, -6.013034471102847E+08, -3.042739270035988E+08,  3.922880140188703E+00,  7.975265754386280E+00,  3.125171840392738E+00,
2471268.500000000, A.D. 2054-Jan-01 00:00:00.0000,  1.391284423505860E+09, -3.388069988260822E+08, -1.999306049290257E+08,  2.083982112286907E+00,  8.617523390358937E+00,  3.469999890011594E+00,
2471633.500000000, A.D. 2055-Jan-01 00:00:00.0000,  1.425871367224224E+09, -6.161256606668884E+07, -8.690328330500039E+07,  9.286765057233166E-02,  8.898796658361723E+00,  3.672458204954687E+00,
2471998.500000000, A.D. 2056-Jan-01 00:00:00.0000,  1.396296889044984E+09,  2.182888927846392E+08,  3.000782035329041E+07, -1.970849731903243E+00,  8.782336150875086E+00,  3.713705433403001E+00,
2472364.500000000, A.D. 2057-Jan-01 00:00:00.0000,  1.301398480949010E+09,  4.886655614746086E+08,  1.457993279601564E+08, -4.017316095917828E+00,  8.244323649062206E+00,  3.579743317069456E+00,
2472729.500000000, A.D. 2058-Jan-01 00:00:00.0000,  1.144074812755087E+09,  7.346755376061827E+08,  2.542146662331443E+08, -5.929198702950610E+00,  7.285847879956576E+00,  3.266223701073694E+00,
2473094.500000000, A.D. 2059-Jan-01 00:00:00.0000,  9.300037356258118E+08,  9.440977192747743E+08,  3.499614849302447E+08, -7.599257406365991E+00,  5.931124751151112E+00,  2.778317752733775E+00,
2473459.500000000, A.D. 2060-Jan-01 00:00:00.0000,  6.685227708014773E+08,  1.105195956088440E+09,  4.277920396395485E+08, -8.919804896654552E+00,  4.234582444244183E+00,  2.134119432650303E+00,
2473825.500000000, A.D. 2061-Jan-01 00:00:00.0000,  3.713025159912603E+08,  1.208680028739634E+09,  4.833676466214210E+08, -9.799895600526472E+00,  2.277682054211818E+00,  1.363589009888775E+00,
2474190.500000000, A.D. 2062-Jan-01 00:00:00.0000,  5.511668249178117E+07,  1.247692833215059E+09,  5.131285959113897E+08, -1.016501730739815E+01,  1.850404499653321E-01,  5.145157247116073E-01,
2474555.500000000, A.D. 2063-Jan-01 00:00:00.0000, -2.640754962875440E+08,  1.220116512326949E+09,  5.155075916389778E+08, -9.987516408019571E+00, -1.923196227485878E+00, -3.642596086645864E-01,
2474920.500000000, A.D. 2064-Jan-01 00:00:00.0000, -5.692510519505440E+08,  1.127515514757780E+09,  4.904154949793518E+08, -9.280165589226346E+00, -3.918146593747962E+00, -1.218856564378051E+00,
2475286.500000000, A.D. 2065-Jan-01 00:00:00.0000, -8.451323468824186E+08,  9.749005741138011E+08,  4.392634952470583E+08, -8.092519703437487E+00, -5.685174921428007E+00, -2.000022217482876E+00,
2475651.500000000, A.D. 2066-Jan-01 00:00:00.0000, -1.076426700208276E+09,  7.720338836365391E+08,  3.654255862497054E+08, -6.516991206032150E+00, -7.119406549647683E+00, -2.660159551074334E+00,
2476016.500000000, A.D. 2067-Jan-01 00:00:00.0000, -1.253264909533228E+09,  5.300386908186783E+08,  2.730718561346937E+08, -4.658374549115435E+00, -8.160087158968640E+00, -3.169939456535500E+00,
2476381.500000000, A.D. 2068-Jan-01 00:00:00.0000, -1.368517127011670E+09,  2.619295505489268E+08,  1.672718154212185E+08, -2.631931563307497E+00, -8.773483058265802E+00, -3.510682508444447E+00,
